{
    "links": {
        "self": "http://www.neowsapp.com/rest/v1/neo/3704266?api_key=iIulBulltgU6a56xZRHN4H3l9WmuAYTsLGpBGhQ2"
    },
    "id": "3704266",
    "neo_reference_id": "3704266",
    "name": "(2015 BV4)",
    "designation": "2015 BV4",
    "nasa_jpl_url": "http://ssd.jpl.nasa.gov/sbdb.cgi?sstr=3704266",
    "absolute_magnitude_h": 23.8,
    "estimated_diameter": {
        "kilometers": {
            "estimated_diameter_min": 0.046190746,
            "estimated_diameter_max": 0.1032856481
        },
        "meters": {
            "estimated_diameter_min": 46.1907460282,
            "estimated_diameter_max": 103.2856480504
        },
        "miles": {
            "estimated_diameter_min": 0.0287015901,
            "estimated_diameter_max": 0.0641787064
        },
        "feet": {
            "estimated_diameter_min": 151.544447199,
            "estimated_diameter_max": 338.8636855496
        }
    },
    "is_potentially_hazardous_asteroid": false,
    "close_approach_data": [
        {
            "close_approach_date": "2011-04-12",
            "close_approach_date_full": "2011-Apr-12 09:42",
            "epoch_date_close_approach": 1302601320000,
            "relative_velocity": {
                "kilometers_per_second": "17.8398690043",
                "kilometers_per_hour": "64223.5284153792",
                "miles_per_hour": "39906.002975656"
            },
            "miss_distance": {
                "astronomical": "0.3975792167",
                "lunar": "154.6583152963",
                "kilometers": "59477003.974588429",
                "miles": "36957296.5371971602"
            },
            "orbiting_body": "Earth"
        },
        {
            "close_approach_date": "2015-02-14",
            "close_approach_date_full": "2015-Feb-14 08:51",
            "epoch_date_close_approach": 1423903860000,
            "relative_velocity": {
                "kilometers_per_second": "7.5158588795",
                "kilometers_per_hour": "27057.0919662852",
                "miles_per_hour": "16812.2247276065"
            },
            "miss_distance": {
                "astronomical": "0.0657760233",
                "lunar": "25.5868730637",
                "kilometers": "9839952.982750371",
                "miles": "6114263.2613262798"
            },
            "orbiting_body": "Earth"
        }
    ],
    "orbital_data": {
        "orbit_id": "18",
        "orbit_determination_date": "2017-04-06 08:36:13",
        "first_observation_date": "2015-01-18",
        "last_observation_date": "2015-02-26",
        "data_arc_in_days": 39,
        "observations_used": 83,
        "orbit_uncertainty": "6",
        "minimum_orbit_intersection": ".0601568",
        "jupiter_tisserand_invariant": "3.213",
        "epoch_osculation": "2459000.5",
        "eccentricity": ".5807635224506168",
        "semi_major_axis": "2.48738654886494",
        "inclination": "4.961128310881839",
        "ascending_node_longitude": "314.3771285025186",
        "orbital_period": "1432.891640613424",
        "perihelion_distance": "1.042803175049854",
        "perihelion_argument": "200.0256557568374",
        "aphelion_distance": "3.931969922680026",
        "perihelion_time": "2458508.880558750975",
        "mean_anomaly": "123.5145727934335",
        "mean_motion": ".2512402123065519",
        "equinox": "J2000",
        "orbit_class": {
            "orbit_class_type": "AMO",
            "orbit_class_description": "Near-Earth asteroid orbits similar to that of 1221 Amor",
            "orbit_class_range": "1.017 AU < q (perihelion) < 1.3 AU"
        }
    },
    "is_sentry_object": false
}